start=new Date('2023-06-20T00:00:00.000Z').valueOf();
sats=[{"INCLINATION":"53.0542","REV_AT_EPOCH":"15809","ELEMENT_SET_NO":"999","EPOCH":"2023-06-19T22:35:56.838912","FILE":"3937509","MEAN_MOTION_DOT":"0.00024333","OBJECT_ID":"2020-057P","BSTAR":"0.00164570000000","EPHEMERIS_TYPE":"0","OBJECT_NAME":"STARLINK-1624","TIME_SYSTEM":"UTC","GP_ID":"234314475","COUNTRY_CODE":"US","MEAN_ELEMENT_THEORY":"SGP4","RA_OF_ASC_NODE":"57.7314","CLASSIFICATION_TYPE":"U","PERIOD":"95.591","DECAY_DATE":null,"ARG_OF_PERICENTER":"89.0157","PERIAPSIS":"546.269","MEAN_MOTION_DDOT":"0.0000000000000","SEMIMAJOR_AXIS":"6925.272","REF_FRAME":"TEME","MEAN_MOTION":"15.06424968","OBJECT_TYPE":"PAYLOAD","MEAN_ANOMALY":"271.0976","NORAD_CAT_ID":"46130","RCS_SIZE":"LARGE","TLE_LINE2":"2 46130  53.0542  57.7314 0001254  89.0157 271.0976 15.06424968158094","APOAPSIS":"548.005","SITE":"AFETR","LAUNCH_DATE":"2020-08-18","TLE_LINE1":"1 46130U 20057P   23170.94163008  .00024333  00000-0  16457-2 0  9992","ECCENTRICITY":"0.00012540","CENTER_NAME":"EARTH"},{"EPHEMERIS_TYPE":"0","TIME_SYSTEM":"UTC","OBJECT_NAME":"STARLINK-1625","GP_ID":"234283799","BSTAR":"0.00067967000000","MEAN_MOTION_DOT":"0.00009856","OBJECT_ID":"2020-057Q","INCLINATION":"53.0543","REV_AT_EPOCH":"15770","ELEMENT_SET_NO":"999","EPOCH":"2023-06-19T03:48:03.691584","FILE":"3937338","DECAY_DATE":null,"ARG_OF_PERICENTER":"94.8617","PERIAPSIS":"546.332","MEAN_MOTION_DDOT":"0.0000000000000","RA_OF_ASC_NODE":"81.2421","CLASSIFICATION_TYPE":"U","PERIOD":"95.592","MEAN_ELEMENT_THEORY":"SGP4","COUNTRY_CODE":"US","NORAD_CAT_ID":"46131","RCS_SIZE":"LARGE","OBJECT_TYPE":"PAYLOAD","MEAN_ANOMALY":"265.2518","MEAN_MOTION":"15.06398423","SEMIMAJOR_AXIS":"6925.353","REF_FRAME":"TEME","TLE_LINE1":"1 46131U 20057Q   23170.15837606  .00009856  00000-0  67967-3 0  9994","LAUNCH_DATE":"2020-08-18","CENTER_NAME":"EARTH","ECCENTRICITY":"0.00012800","SITE":"AFETR","TLE_LINE2":"2 46131  53.0543  81.2421 0001280  94.8617 265.2518 15.06398423157701","APOAPSIS":"548.105"},{"SITE":"AFETR","ECCENTRICITY":"0.00012880","CENTER_NAME":"EARTH","LAUNCH_DATE":"2020-08-18","TLE_LINE1":"1 46132U 20057R   23170.52880808  .00017773  00000-0  12087-2 0  9997","APOAPSIS":"548.075","TLE_LINE2":"2 46132  53.0538  99.5799 0001288  93.2315 266.8821 15.06410037156880","MEAN_ANOMALY":"266.8821","OBJECT_TYPE":"PAYLOAD","RCS_SIZE":"LARGE","NORAD_CAT_ID":"46132","REF_FRAME":"TEME","SEMIMAJOR_AXIS":"6925.318","MEAN_MOTION":"15.06410037","PERIAPSIS":"546.291","MEAN_MOTION_DDOT":"0.0000000000000","DECAY_DATE":null,"ARG_OF_PERICENTER":"93.2315","COUNTRY_CODE":"US","MEAN_ELEMENT_THEORY":"SGP4","CLASSIFICATION_TYPE":"U","RA_OF_ASC_NODE":"99.5799","PERIOD":"95.592","BSTAR":"0.00120870000000","OBJECT_NAME":"STARLINK-1630","TIME_SYSTEM":"UTC","GP_ID":"234292339","EPHEMERIS_TYPE":"0","EPOCH":"2023-06-19T12:41:29.018112","FILE":"3937355","INCLINATION":"53.0538","REV_AT_EPOCH":"15688","ELEMENT_SET_NO":"999","OBJECT_ID":"2020-057R","MEAN_MOTION_DOT":"0.00017773"},{"MEAN_MOTION":"15.06429368","SEMIMAJOR_AXIS":"6925.259","REF_FRAME":"TEME","NORAD_CAT_ID":"46133","RCS_SIZE":"LARGE","OBJECT_TYPE":"PAYLOAD","MEAN_ANOMALY":"255.7069","APOAPSIS":"547.867","TLE_LINE2":"2 46133  53.0556  58.9813 0001073 104.4040 255.7069 15.06429368158058","CENTER_NAME":"EARTH","ECCENTRICITY":"0.00010730","TLE_LINE1":"1 46133U 20057S   23170.66150666  .00030989  00000-0  20885-2 0  9994","LAUNCH_DATE":"2020-08-18","SITE":"AFETR","OBJECT_ID":"2020-057S","MEAN_MOTION_DOT":"0.00030989","EPOCH":"2023-06-19T15:52:34.175424","FILE":"3937509","ELEMENT_SET_NO":"999","REV_AT_EPOCH":"15805","INCLINATION":"53.0556","GP_ID":"234314227","OBJECT_NAME":"STARLINK-1637","TIME_SYSTEM":"UTC","EPHEMERIS_TYPE":"0","BSTAR":"0.00208850000000","PERIOD":"95.590","RA_OF_ASC_NODE":"58.9813","CLASSIFICATION_TYPE":"U","MEAN_ELEMENT_THEORY":"SGP4","COUNTRY_CODE":"US","MEAN_MOTION_DDOT":"0.0000000000000","PERIAPSIS":"546.380","ARG_OF_PERICENTER":"104.4040","DECAY_DATE":null},{"BSTAR":"0.00151820000000","EPHEMERIS_TYPE":"0","OBJECT_NAME":"STARLINK-1638","TIME_SYSTEM":"UTC","GP_ID":"234314976","INCLINATION":"53.0547","REV_AT_EPOCH":"15682","ELEMENT_SET_NO":"999","FILE":"3937509","EPOCH":"2023-06-19T19:07:35.349024","MEAN_MOTION_DOT":"0.00022423","OBJECT_ID":"2020-057T","DECAY_DATE":null,"ARG_OF_PERICENTER":"100.8253","PERIAPSIS":"546.187","MEAN_MOTION_DDOT":"0.0000000000000","COUNTRY_CODE":"US","MEAN_ELEMENT_THEORY":"SGP4","RA_OF_ASC_NODE":"58.3681","CLASSIFICATION_TYPE":"U","PERIOD":"95.590","MEAN_ANOMALY":"259.2888","OBJECT_TYPE":"PAYLOAD","NORAD_CAT_ID":"46134","RCS_SIZE":"LARGE","REF_FRAME":"TEME","SEMIMAJOR_AXIS":"6925.257","MEAN_MOTION":"15.06429822","SITE":"AFETR","LAUNCH_DATE":"2020-08-18","TLE_LINE1":"1 46134U 20057T   23170.79693691  .00022423  00000-0  15182-2 0  9997","CENTER_NAME":"EARTH","ECCENTRICITY":"0.00013500","TLE_LINE2":"2 46134  53.0547  58.3681 0001350 100.8253 259.2888 15.06429822156826","APOAPSIS":"548.057"},{"RCS_SIZE":"LARGE","NORAD_CAT_ID":"46135","OBJECT_TYPE":"PAYLOAD","MEAN_ANOMALY":"271.2289","MEAN_MOTION":"15.06406095","REF_FRAME":"TEME","SEMIMAJOR_AXIS":"6925.330","LAUNCH_DATE":"2020-08-18","TLE_LINE1":"1 46135U 20057U   23170.08282640  .00011801  00000-0  80964-3 0  9997","ECCENTRICITY":"0.00013360","CENTER_NAME":"EARTH","SITE":"AFETR","TLE_LINE2":"2 46135  53.0543  61.5796 0001336  88.8853 271.2289 15.06406095156715","APOAPSIS":"548.120","EPHEMERIS_TYPE":"0","OBJECT_NAME":"STARLINK-1639","TIME_SYSTEM":"UTC","GP_ID":"234283300","BSTAR":"0.00080964000000","MEAN_MOTION_DOT":"0.00011801","OBJECT_ID":"2020-057U","INCLINATION":"53.0543","ELEMENT_SET_NO":"999","REV_AT_EPOCH":"15671","EPOCH":"2023-06-19T01:59:16.200960","FILE":"3937338","DECAY_DATE":null,"ARG_OF_PERICENTER":"88.8853","PERIAPSIS":"546.270","MEAN_MOTION_DDOT":"0.0000000000000","CLASSIFICATION_TYPE":"U","RA_OF_ASC_NODE":"61.5796","PERIOD":"95.592","COUNTRY_CODE":"US","MEAN_ELEMENT_THEORY":"SGP4"},{"MEAN_MOTION_DDOT":"0.0000000000000","PERIAPSIS":"546.306","ARG_OF_PERICENTER":"89.9116","DECAY_DATE":null,"COUNTRY_CODE":"US","MEAN_ELEMENT_THEORY":"SGP4","PERIOD":"95.592","RA_OF_ASC_NODE":"91.0581","CLASSIFICATION_TYPE":"U","BSTAR":"0.00032219000000","GP_ID":"234283550","TIME_SYSTEM":"UTC","OBJECT_NAME":"STARLINK-1643","EPHEMERIS_TYPE":"0","EPOCH":"2023-06-19T04:43:45.978816","FILE":"3937338","REV_AT_EPOCH":"15631","ELEMENT_SET_NO":"999","INCLINATION":"53.0550","OBJECT_ID":"2020-057V","MEAN_MOTION_DOT":"0.00004521","SITE":"AFETR","CENTER_NAME":"EARTH","ECCENTRICITY":"0.00012980","LAUNCH_DATE":"2020-08-18","TLE_LINE1":"1 46136U 20057V   23170.19705994  .00004521  00000-0  32219-3 0  9993","APOAPSIS":"548.104","TLE_LINE2":"2 46136  53.0550  91.0581 0001298  89.9116 270.2021 15.06402753156311","OBJECT_TYPE":"PAYLOAD","MEAN_ANOMALY":"270.2021","NORAD_CAT_ID":"46136","RCS_SIZE":"LARGE","REF_FRAME":"TEME","SEMIMAJOR_AXIS":"6925.340","MEAN_MOTION":"15.06402753"},{"GP_ID":"234314728","TIME_SYSTEM":"UTC","OBJECT_NAME":"STARLINK-1586","EPHEMERIS_TYPE":"0","BSTAR":"0.00168010000000","OBJECT_ID":"2020-057W","MEAN_MOTION_DOT":"0.00024851","FILE":"3937509","EPOCH":"2023-06-19T19:32:50.141472","REV_AT_EPOCH":"15654","ELEMENT_SET_NO":"999","INCLINATION":"53.0542","MEAN_MOTION_DDOT":"0.0000000000000","PERIAPSIS":"546.245","ARG_OF_PERICENTER":"89.9643","DECAY_DATE":null,"PERIOD":"95.590","CLASSIFICATION_TYPE":"U","RA_OF_ASC_NODE":"78.2966","COUNTRY_CODE":"US","MEAN_ELEMENT_THEORY":"SGP4","RCS_SIZE":"LARGE","NORAD_CAT_ID":"46137","OBJECT_TYPE":"PAYLOAD","MEAN_ANOMALY":"270.1493","MEAN_MOTION":"15.06427570","SEMIMAJOR_AXIS":"6925.264","REF_FRAME":"TEME","ECCENTRICITY":"0.00012770","CENTER_NAME":"EARTH","LAUNCH_DATE":"2020-08-18","TLE_LINE1":"1 46137U 20057W   23170.81446923  .00024851  00000-0  16801-2 0  9993","SITE":"AFETR","APOAPSIS":"548.013","TLE_LINE2":"2 46137  53.0542  78.2966 0001277  89.9643 270.1493 15.06427570156540"},{"ECCENTRICITY":"0.00014100","CENTER_NAME":"EARTH","LAUNCH_DATE":"2020-08-18","TLE_LINE1":"1 46138U 20057X   23170.08281158  .00004818  00000-0  34212-3 0  9998","SITE":"AFETR","APOAPSIS":"548.196","TLE_LINE2":"2 46138  53.0541 101.5818 0001410 100.2759 259.8389 15.06398207156159","NORAD_CAT_ID":"46138","RCS_SIZE":"LARGE","MEAN_ANOMALY":"259.8389","OBJECT_TYPE":"PAYLOAD","MEAN_MOTION":"15.06398207","SEMIMAJOR_AXIS":"6925.354","REF_FRAME":"TEME","MEAN_MOTION_DDOT":"0.0000000000000","PERIAPSIS":"546.243","ARG_OF_PERICENTER":"100.2759","DECAY_DATE":null,"PERIOD":"95.592","CLASSIFICATION_TYPE":"U","RA_OF_ASC_NODE":"101.5818","MEAN_ELEMENT_THEORY":"SGP4","COUNTRY_CODE":"US","GP_ID":"234284545","TIME_SYSTEM":"UTC","OBJECT_NAME":"STARLINK-1590","EPHEMERIS_TYPE":"0","BSTAR":"0.00034212000000","OBJECT_ID":"2020-057X","MEAN_MOTION_DOT":"0.00004818","EPOCH":"2023-06-19T01:59:14.920512","FILE":"3937338","ELEMENT_SET_NO":"999","REV_AT_EPOCH":"15615","INCLINATION":"53.0541"},{"NORAD_CAT_ID":"46140","RCS_SIZE":"LARGE","MEAN_ANOMALY":"279.4108","OBJECT_TYPE":"PAYLOAD","MEAN_MOTION":"15.06392836","REF_FRAME":"TEME","SEMIMAJOR_AXIS":"6925.371","CENTER_NAME":"EARTH","ECCENTRICITY":"0.00013470","TLE_LINE1":"1 46140U 20057Z   23170.10861737  .00024139  00000-0  16342-2 0  9992","LAUNCH_DATE":"2020-08-18","SITE":"AFETR","APOAPSIS":"548.168","TLE_LINE2":"2 46140  53.0539  61.4670 0001347  80.7033 279.4108 15.06392836157986","OBJECT_NAME":"STARLINK-1594","TIME_SYSTEM":"UTC","GP_ID":"234283800","EPHEMERIS_TYPE":"0","BSTAR":"0.00163420000000","OBJECT_ID":"2020-057Z","MEAN_MOTION_DOT":"0.00024139","EPOCH":"2023-06-19T02:36:24.540768","FILE":"3937338","INCLINATION":"53.0539","ELEMENT_SET_NO":"999","REV_AT_EPOCH":"15798","PERIAPSIS":"546.303","MEAN_MOTION_DDOT":"0.0000000000000","DECAY_DATE":null,"ARG_OF_PERICENTER":"80.7033","CLASSIFICATION_TYPE":"U","RA_OF_ASC_NODE":"61.4670","PERIOD":"95.593","MEAN_ELEMENT_THEORY":"SGP4","COUNTRY_CODE":"US"}];
